[{"OBJECT_NAME":"STARLINK-2593","OBJECT_ID":"2021-038BD","EPOCH":"2026-03-09T22:48:53.539488","MEAN_MOTION":15.30183404,"ECCENTRICITY":0.0001705,"INCLINATION":53.1613,"RA_OF_ASC_NODE":331.4811,"ARG_OF_PERICENTER":110.8512,"MEAN_ANOMALY":249.2671,"EPHEMERIS_TYPE":0,"CLASSIFICATION_TYPE":"U","NORAD_CAT_ID":48404,"ELEMENT_SET_NO":999,"REV_AT_EPOCH":26748,"BSTAR":-0.0001168203,"MEAN_MOTION_DOT":-3.816e-5,"MEAN_MOTION_DDOT":0},{"OBJECT_NAME":"SL-3 R\/B","OBJECT_ID":"1982-079B","EPOCH":"2026-03-09T22:18:18.158976","MEAN_MOTION":15.24805533,"ECCENTRICITY":0.00250364,"INCLINATION":81.1481,"RA_OF_ASC_NODE":192.7939,"ARG_OF_PERICENTER":164.0597,"MEAN_ANOMALY":196.143,"EPHEMERIS_TYPE":0,"CLASSIFICATION_TYPE":"U","NORAD_CAT_ID":13403,"ELEMENT_SET_NO":999,"REV_AT_EPOCH":37773,"BSTAR":0.00032485557,"MEAN_MOTION_DOT":8.157e-5,"MEAN_MOTION_DDOT":0}]
